{
  "type": "FeatureCollection",
  "features": [
    {
      "type": "Feature",
      "properties": {
        "norad_id": 30654,
        "name": "FENGYUN 1C DEB",
        "group": "fengyun-1c-debris",
        "lat": 43.395423194207964,
        "lon": -100.98757383713512,
        "alt_km": 818.1444456138388,
        "timestamp": "2025-12-10T16:57:11.914432+00:00",
        "meta_object_name": "FENGYUN 1C DEB",
        "meta_object_id": "1999-025APL",
        "meta_epoch": "2025-12-10T04:53:03.060096",
        "meta_mean_motion": 14.17081119,
        "meta_eccentricity": 0.003507,
        "meta_inclination": 99.2407,
        "meta_ra_of_asc_node": 267.3446,
        "meta_arg_of_pericenter": 103.7995,
        "meta_mean_anomaly": 256.7085,
        "meta_ephemeris_type": 0,
        "meta_classification_type": "U",
        "meta_norad_cat_id": 30654,
        "meta_element_set_no": 999,
        "meta_rev_at_epoch": 96644,
        "meta_bstar": 0.0016599,
        "meta_mean_motion_dot": 3.315e-05,
        "meta_mean_motion_ddot": 0,
        "tle_line1": "1 30654U 99025APL 25344.20350764  .00003315  00000+0  16599-2 0  9991",
        "tle_line2": "2 30654  99.2407 267.3446 0035070 103.7995 256.7085 14.17081119966447"
      },
      "geometry": {
        "type": "Point",
        "coordinates": [
          -100.98757383713512,
          43.395423194207964
        ]
      }
    },
    {
      "type": "Feature",
      "properties": {
        "norad_id": 30656,
        "name": "FENGYUN 1C DEB",
        "group": "fengyun-1c-debris",
        "lat": -12.621881394355094,
        "lon": 160.71584488374788,
        "alt_km": 751.2107317222044,
        "timestamp": "2025-12-10T16:57:11.914443+00:00",
        "meta_object_name": "FENGYUN 1C DEB",
        "meta_object_id": "1999-025APN",
        "meta_epoch": "2025-12-10T05:22:53.323392",
        "meta_mean_motion": 14.45249529,
        "meta_eccentricity": 0.0030273,
        "meta_inclination": 99.0188,
        "meta_ra_of_asc_node": 158.1659,
        "meta_arg_of_pericenter": 94.057,
        "meta_mean_anomaly": 266.4081,
        "meta_ephemeris_type": 0,
        "meta_classification_type": "U",
        "meta_norad_cat_id": 30656,
        "meta_element_set_no": 999,
        "meta_rev_at_epoch": 97049,
        "meta_bstar": 0.0040166,
        "meta_mean_motion_dot": 0.00014146,
        "meta_mean_motion_ddot": 0,
        "tle_line1": "1 30656U 99025APN 25344.22422828  .00014146  00000+0  40166-2 0  9997",
        "tle_line2": "2 30656  99.0188 158.1659 0030273  94.0570 266.4081 14.45249529970493"
      },
      "geometry": {
        "type": "Point",
        "coordinates": [
          160.71584488374788,
          -12.621881394355094
        ]
      }
    },
    {
      "type": "Feature",
      "properties": {
        "norad_id": 30657,
        "name": "FENGYUN 1C DEB",
        "group": "fengyun-1c-debris",
        "lat": 26.088022805324357,
        "lon": -92.95537763776143,
        "alt_km": 773.0943376764426,
        "timestamp": "2025-12-10T16:57:11.914453+00:00",
        "meta_object_name": "FENGYUN 1C DEB",
        "meta_object_id": "1999-025APP",
        "meta_epoch": "2025-12-09T05:28:19.816896",
        "meta_mean_motion": 14.38523565,
        "meta_eccentricity": 0.0015855,
        "meta_inclination": 98.8357,
        "meta_ra_of_asc_node": 81.1557,
        "meta_arg_of_pericenter": 356.1208,
        "meta_mean_anomaly": 65.5278,
        "meta_ephemeris_type": 0,
        "meta_classification_type": "U",
        "meta_norad_cat_id": 30657,
        "meta_element_set_no": 999,
        "meta_rev_at_epoch": 97182,
        "meta_bstar": 0.0029903,
        "meta_mean_motion_dot": 9.118e-05,
        "meta_mean_motion_ddot": 0,
        "tle_line1": "1 30657U 99025APP 25343.22800714  .00009118  00000+0  29903-2 0  9990",
        "tle_line2": "2 30657  98.8357  81.1557 0015855 356.1208  65.5278 14.38523565971821"
      },
      "geometry": {
        "type": "Point",
        "coordinates": [
          -92.95537763776143,
          26.088022805324357
        ]
      }
    },
    {
      "type": "Feature",
      "properties": {
        "norad_id": 30658,
        "name": "FENGYUN 1C DEB",
        "group": "fengyun-1c-debris",
        "lat": 48.24289269619931,
        "lon": 7.768795428980417,
        "alt_km": 1068.2113342010543,
        "timestamp": "2025-12-10T16:57:11.914463+00:00",
        "meta_object_name": "FENGYUN 1C DEB",
        "meta_object_id": "1999-025APQ",
        "meta_epoch": "2025-12-10T01:07:51.018528",
        "meta_mean_motion": 13.87181708,
        "meta_eccentricity": 0.01836939,
        "meta_inclination": 98.4372,
        "meta_ra_of_asc_node": 16.7431,
        "meta_arg_of_pericenter": 234.8653,
        "meta_mean_anomaly": 123.5173,
        "meta_ephemeris_type": 0,
        "meta_classification_type": "U",
        "meta_norad_cat_id": 30658,
        "meta_element_set_no": 999,
        "meta_rev_at_epoch": 94647,
        "meta_bstar": 0.0023774003,
        "meta_mean_motion_dot": 3.151e-05,
        "meta_mean_motion_ddot": 0,
        "tle_line1": "1 30658U 99025APQ 25344.04711827  .00003151  00000+0  23774-2 0  9999",
        "tle_line2": "2 30658  98.4372  16.7431 0183693 234.8653 123.5173 13.87181708946476"
      },
      "geometry": {
        "type": "Point",
        "coordinates": [
          7.768795428980417,
          48.24289269619931
        ]
      }
    },
    {
      "type": "Feature",
      "properties": {
        "norad_id": 30660,
        "name": "FENGYUN 1C DEB",
        "group": "fengyun-1c-debris",
        "lat": 48.08049798314574,
        "lon": -89.71700611925087,
        "alt_km": 684.2186966572408,
        "timestamp": "2025-12-10T16:57:11.914473+00:00",
        "meta_object_name": "FENGYUN 1C DEB",
        "meta_object_id": "1999-025APS",
        "meta_epoch": "2025-12-10T05:20:49.696224",
        "meta_mean_motion": 14.87487583,
        "meta_eccentricity": 0.0137359,
        "meta_inclination": 98.1386,
        "meta_ra_of_asc_node": 80.6159,
        "meta_arg_of_pericenter": 342.7817,
        "meta_mean_anomaly": 79.5807,
        "meta_ephemeris_type": 0,
        "meta_classification_type": "U",
        "meta_norad_cat_id": 30660,
        "meta_element_set_no": 999,
        "meta_rev_at_epoch": 747,
        "meta_bstar": 0.0008826,
        "meta_mean_motion_dot": 9.46e-05,
        "meta_mean_motion_ddot": 0,
        "tle_line1": "1 30660U 99025APS 25344.22279741  .00009460  00000+0  88260-3 0  9997",
        "tle_line2": "2 30660  98.1386  80.6159 0137359 342.7817  79.5807 14.87487583  7470"
      },
      "geometry": {
        "type": "Point",
        "coordinates": [
          -89.71700611925087,
          48.08049798314574
        ]
      }
    },
    {
      "type": "Feature",
      "properties": {
        "norad_id": 30661,
        "name": "FENGYUN 1C DEB",
        "group": "fengyun-1c-debris",
        "lat": -55.17700541741742,
        "lon": 174.14224613934246,
        "alt_km": 858.6106202207657,
        "timestamp": "2025-12-10T16:57:11.914483+00:00",
        "meta_object_name": "FENGYUN 1C DEB",
        "meta_object_id": "1999-025APT",
        "meta_epoch": "2025-12-10T10:27:27.880704",
        "meta_mean_motion": 14.21140019,
        "meta_eccentricity": 0.0144788,
        "meta_inclination": 99.4869,
        "meta_ra_of_asc_node": 159.9425,
        "meta_arg_of_pericenter": 52.0875,
        "meta_mean_anomaly": 309.3288,
        "meta_ephemeris_type": 0,
        "meta_classification_type": "U",
        "meta_norad_cat_id": 30661,
        "meta_element_set_no": 999,
        "meta_rev_at_epoch": 97869,
        "meta_bstar": 0.00017496,
        "meta_mean_motion_dot": 3.73e-06,
        "meta_mean_motion_ddot": 0,
        "tle_line1": "1 30661U 99025APT 25344.43573936  .00000373  00000+0  17496-3 0  9991",
        "tle_line2": "2 30661  99.4869 159.9425 0144788  52.0875 309.3288 14.21140019978692"
      },
      "geometry": {
        "type": "Point",
        "coordinates": [
          174.14224613934246,
          -55.17700541741742
        ]
      }
    },
    {
      "type": "Feature",
      "properties": {
        "norad_id": 30662,
        "name": "FENGYUN 1C DEB",
        "group": "fengyun-1c-debris",
        "lat": -14.958422488377984,
        "lon": 43.37172661996718,
        "alt_km": 813.1723037032652,
        "timestamp": "2025-12-10T16:57:11.914493+00:00",
        "meta_object_name": "FENGYUN 1C DEB",
        "meta_object_id": "1999-025APU",
        "meta_epoch": "2025-12-09T02:19:43.925952",
        "meta_mean_motion": 14.22321832,
        "meta_eccentricity": 0.00327932,
        "meta_inclination": 99.0534,
        "meta_ra_of_asc_node": 39.2783,
        "meta_arg_of_pericenter": 281.6226,
        "meta_mean_anomaly": 107.1029,
        "meta_ephemeris_type": 0,
        "meta_classification_type": "U",
        "meta_norad_cat_id": 30662,
        "meta_element_set_no": 999,
        "meta_rev_at_epoch": 96587,
        "meta_bstar": 0.0018706914,
        "meta_mean_motion_dot": 4.137e-05,
        "meta_mean_motion_ddot": 0,
        "tle_line1": "1 30662U 99025APU 25343.09703618  .00004137  00000+0  18707-2 0  9992",
        "tle_line2": "2 30662  99.0534  39.2783 0032793 281.6226 107.1029 14.22321832965875"
      },
      "geometry": {
        "type": "Point",
        "coordinates": [
          43.37172661996718,
          -14.958422488377984
        ]
      }
    }
  ]
}